{
  "id": 1394389177,
  "type": "Feature",
  "properties": {
    "geom:area":0,
    "geom:bbox":"0.000000,0.000000,0.000000,0.000000",
    "geom:latitude":44.837966,
    "geom:longitude":-4.492117,
    "src:alt_label":"swim-route",
    "src:geom":"swim",
    "swim:geom":"route",
    "wof:geomhash":"0d7df27202a302b37674aa57820ef3e4",
    "wof:id":1394389177,
    "wof:repo":"sfomuseum-data-flights-2019-07"
},
  "bbox": [
    -170.97,
    31.14,
    163.62,
    49.53
],
  "geometry": {"coordinates":[[[121.79,31.14],[123.2,32.24],[146.43,45.01],[163.62,49.53]],[[-170.97,42.03],[-164.83,42.12],[-158.92,42.05],[-150,42.53],[-134.84,40.96],[-132.4,40.5],[-130,40],[-127,40.01],[-126.99,40],[-125.99,39.71],[-124.06,39.1],[-123.87,39.04],[-123.75,39],[-123.65,38.92],[-123.59,38.88],[-123.37,38.7],[-123.33,38.67],[-123.14,38.52],[-123.09,38.48],[-122.87,38.3],[-122.85,38.29],[-122.77,38.22],[-122.75,38.16],[-122.72,38.06],[-122.69,37.95],[-122.67,37.9],[-122.67,37.9],[-122.65,37.87],[-122.62,37.85],[-122.59,37.82],[-122.58,37.81],[-122.51,37.74],[-122.5,37.73],[-122.44,37.68],[-122.37,37.62],[-122.38,37.62]]],"type":"MultiLineString"}
}