{
  "id": 1394341535,
  "type": "Feature",
  "properties": {
    "geom:area":0,
    "geom:bbox":"0.000000,0.000000,0.000000,0.000000",
    "geom:latitude":49.454043,
    "geom:longitude":-17.918546,
    "src:alt_label":"swim-route",
    "src:geom":"swim",
    "swim:geom":"route",
    "wof:geomhash":"443a3c74c308e0c5d88be9782c02cd52",
    "wof:id":1394341535,
    "wof:repo":"sfomuseum-data-flights-2019-07"
},
  "bbox": [
    -176.02,
    37.5,
    156.97,
    52.35
],
  "geometry": {"coordinates":[[[126.45,37.5],[129.22,39.25],[130.22,39.85],[154.14,49.39],[156.97,50.04]],[[-176.02,52.35],[-174.7,52.3],[-173.08,45.1],[-172.85,45.12],[-167.95,44.67],[-160.93,43.23],[-155.83,42.28],[-150,41],[-128.73,40.02],[-127.29,39.99],[-127,40.01],[-126.99,40],[-126.69,39.9],[-124.9,39.36],[-124.72,39.31],[-124,38.91],[-123.96,38.88],[-123.73,38.71],[-123.51,38.54],[-123.29,38.38],[-122.9,38.07],[-122.81,38.01],[-122.67,37.9],[-122.65,37.87],[-122.62,37.85],[-122.59,37.82],[-122.58,37.81],[-122.51,37.74],[-122.5,37.73],[-122.44,37.68],[-122.37,37.62],[-122.38,37.62]]],"type":"MultiLineString"}
}