{
  "id": 1394340935,
  "type": "Feature",
  "properties": {
    "geom:area":0,
    "geom:bbox":"0.000000,0.000000,0.000000,0.000000",
    "geom:latitude":41.142395,
    "geom:longitude":9.763682,
    "src:alt_label":"swim-route",
    "src:geom":"swim",
    "swim:geom":"route",
    "wof:geomhash":"c3905b558012ae80079f564db612b114",
    "wof:id":1394340935,
    "wof:repo":"sfomuseum-data-flights-2019-07"
},
  "bbox": [
    -170.0,
    14.52,
    180.0,
    43.57
],
  "geometry": {"coordinates":[[[121.02,14.52],[122.28,15.59],[124.6,17.51],[131.88,23.11],[132.72,23.71],[155.81,36.31],[163.77,39.06],[164.95,39.4],[168.58,40.37],[172.3,41.22],[177.4,42.16],[178.69,42.36],[180,42.55]],[[-170,43.45],[-164.97,43.57],[-158.68,43.41],[-156.18,43.24],[-153.69,43.03],[-152.45,42.9],[-150,42.61],[-144.75,41.79],[-130,38],[-128.34,37.74],[-127,37.51],[-126.99,37.51],[-124.33,37.36],[-124.06,37.34],[-123.99,37.34],[-123.68,37.32],[-123.63,37.31],[-123.36,37.29],[-122.96,37.27],[-122.86,37.26],[-122.84,37.26],[-122.84,37.26],[-122.76,37.28],[-122.71,37.29],[-122.66,37.3],[-122.63,37.31],[-122.5,37.34],[-122.44,37.36],[-122.29,37.39],[-122.28,37.39],[-122.31,37.46],[-122.34,37.54],[-122.37,37.6],[-122.37,37.61],[-122.38,37.62]]],"type":"MultiLineString"}
}